{
"type": "FeatureCollection",
"name": "green_spaces_clean",
"crs": { "type": "name", "properties": { "name": "urn:ogc:def:crs:OGC:1.3:CRS84" } },
"features": [
{ "type": "Feature", "properties": { "id": "way/1265411772", "@id": "way/1265411772", "landuse": "recreation_ground", "leisure": null, "name": null, "name:mr": null, "tourism": null, "wikipedia": null }, "geometry": { "type": "Polygon", "coordinates": [ [ [ 79.0953989, 21.1370984 ], [ 79.0955778, 21.137178 ], [ 79.095691622515218, 21.137 ], [ 79.095227154011312, 21.137 ], [ 79.0953989, 21.1370984 ] ] ] } },
{ "type": "Feature", "properties": { "id": "way/314142209", "@id": "way/314142209", "landuse": null, "leisure": "park", "name": "Dagdi Park", "name:mr": "दगडी पार्क", "tourism": null, "wikipedia": null }, "geometry": { "type": "Polygon", "coordinates": [ [ [ 79.0770295, 21.1377718 ], [ 79.076712510714287, 21.137 ], [ 79.076, 21.137 ], [ 79.076, 21.137447589448353 ], [ 79.0770295, 21.1377718 ] ] ] } },
{ "type": "Feature", "properties": { "id": "way/1162024416", "@id": "way/1162024416", "landuse": null, "leisure": "garden", "name": null, "name:mr": null, "tourism": null, "wikipedia": null }, "geometry": { "type": "Polygon", "coordinates": [ [ [ 79.0847896, 21.1381429 ], [ 79.0846758, 21.1377467 ], [ 79.084251, 21.1378888 ], [ 79.0843711, 21.138273 ], [ 79.0847896, 21.1381429 ] ] ] } },
{ "type": "Feature", "properties": { "id": "way/280422678", "@id": "way/280422678", "landuse": null, "leisure": "park", "name": "Maharaj Bagh", "name:mr": null, "tourism": "zoo", "wikipedia": "en:Maharajbagh zoo" }, "geometry": { "type": "Polygon", "coordinates": [ [ [ 79.0770939, 21.144208 ], [ 79.0779549, 21.1439702 ], [ 79.0797189, 21.1435164 ], [ 79.0797189, 21.1432264 ], [ 79.0793337, 21.1432264 ], [ 79.0791377, 21.1431949 ], [ 79.0786984, 21.1433777 ], [ 79.0784686, 21.1433462 ], [ 79.0782736, 21.1431744 ], [ 79.0778542, 21.1428549 ], [ 79.0771826, 21.1423704 ], [ 79.076378, 21.1422995 ], [ 79.076, 21.142357819487302 ], [ 79.076, 21.14456522141343 ], [ 79.0770939, 21.144208 ] ] ] } },
{ "type": "Feature", "properties": { "id": "way/387670378", "@id": "way/387670378", "landuse": null, "leisure": "playground", "name": null, "name:mr": null, "tourism": null, "wikipedia": null }, "geometry": { "type": "Polygon", "coordinates": [ [ [ 79.0763277, 21.1442222 ], [ 79.0765035, 21.1441441 ], [ 79.0765705, 21.144116 ], [ 79.0765655, 21.1440894 ], [ 79.076455, 21.1440332 ], [ 79.0760814, 21.1438801 ], [ 79.076, 21.1438587059714 ], [ 79.076, 21.144376308000979 ], [ 79.0763277, 21.1442222 ] ] ] } },
{ "type": "Feature", "properties": { "id": "way/1274361517", "@id": "way/1274361517", "landuse": null, "leisure": "park", "name": null, "name:mr": null, "tourism": null, "wikipedia": null }, "geometry": { "type": "Polygon", "coordinates": [ [ [ 79.0943477, 21.1474134 ], [ 79.094882, 21.1473437 ], [ 79.0950968, 21.1473158 ], [ 79.0950463, 21.1470301 ], [ 79.094527, 21.1470667 ], [ 79.0940507, 21.1471347 ], [ 79.0936715, 21.1472078 ], [ 79.0932867, 21.1472374 ], [ 79.0933539, 21.1475406 ], [ 79.0936977, 21.147497 ], [ 79.0943477, 21.1474134 ] ] ] } },
{ "type": "Feature", "properties": { "id": "way/1274361596", "@id": "way/1274361596", "landuse": null, "leisure": "park", "name": null, "name:mr": null, "tourism": null, "wikipedia": null }, "geometry": { "type": "Polygon", "coordinates": [ [ [ 79.0933539, 21.1475406 ], [ 79.0932867, 21.1472374 ], [ 79.0921063, 21.147425 ], [ 79.0921436, 21.1477037 ], [ 79.0933539, 21.1475406 ] ] ] } },
{ "type": "Feature", "properties": { "id": "way/314566132", "@id": "way/314566132", "landuse": "recreation_ground", "leisure": "park", "name": null, "name:mr": null, "tourism": null, "wikipedia": null }, "geometry": { "type": "Polygon", "coordinates": [ [ [ 79.0765303, 21.1481028 ], [ 79.0768575, 21.1482278 ], [ 79.0770667, 21.1481728 ], [ 79.0772615, 21.1480735 ], [ 79.0772776, 21.147253 ], [ 79.0768591, 21.1470929 ], [ 79.0764032, 21.1471279 ], [ 79.0760867, 21.1472129 ], [ 79.076, 21.147338316546225 ], [ 79.076, 21.147933067693621 ], [ 79.0765303, 21.1481028 ] ] ] } }
]
}
