{
"type": "FeatureCollection",
"name": "water_bodies_clean",
"crs": { "type": "name", "properties": { "name": "urn:ogc:def:crs:OGC:1.3:CRS84" } },
"features": [
{ "type": "Feature", "properties": { "id": "relation/9118302", "@id": "relation/9118302", "alt_name": null, "alt_name:hi": null, "alt_name:mr": null, "boat": null, "layer": null, "name": "Nag River", "name:hi": null, "name:mr": "नाग नदी", "natural": null, "tunnel": null, "type": "waterway", "water": null, "waterway": "river", "wikidata": "Q11789002", "@relations": null }, "geometry": { "type": "MultiLineString", "coordinates": [ [ [ 79.076, 21.138617404330621 ], [ 79.0762317, 21.1387153 ], [ 79.0766866, 21.1387953 ], [ 79.0770643, 21.1389394 ], [ 79.0774333, 21.1390195 ], [ 79.07812, 21.1392756 ], [ 79.0787208, 21.1394197 ], [ 79.0788562, 21.1394444 ], [ 79.0791425, 21.1395535 ], [ 79.0794393, 21.1396439 ], [ 79.079631, 21.1397025 ], [ 79.080084, 21.1398262 ], [ 79.080234, 21.1398898 ], [ 79.080549, 21.1399721 ], [ 79.0813111, 21.1402052 ], [ 79.081861, 21.1403224 ], [ 79.0822055, 21.1402523 ], [ 79.0823858, 21.1402923 ], [ 79.0827291, 21.1404605 ], [ 79.0830638, 21.1405085 ], [ 79.0832288, 21.1404878 ], [ 79.0839221, 21.1403644 ], [ 79.08442, 21.1400122 ], [ 79.0849092, 21.1395558 ], [ 79.0850208, 21.1393397 ], [ 79.0853212, 21.1390195 ], [ 79.08551, 21.1387393 ], [ 79.0858448, 21.1378747 ], [ 79.0861881, 21.1376585 ], [ 79.0874927, 21.1378747 ], [ 79.0880102, 21.1377067 ], [ 79.0887372, 21.1374504 ], [ 79.0890119, 21.1374104 ], [ 79.0892694, 21.1374104 ], [ 79.0898986, 21.1374845 ], [ 79.0903312, 21.1374286 ], [ 79.0923765, 21.1370581 ], [ 79.0926771, 21.1370752 ], [ 79.0934238, 21.137139 ], [ 79.093748046890539, 21.137 ] ], [ [ 79.094843150066978, 21.137 ], [ 79.0950372, 21.1370901 ], [ 79.0952731, 21.1371957 ], [ 79.0958612, 21.1374424 ], [ 79.096874, 21.1374504 ], [ 79.0978868, 21.1373383 ], [ 79.098, 21.1373383 ] ] ] } },
{ "type": "Feature", "properties": { "id": "way/314809242", "@id": "way/314809242", "alt_name": null, "alt_name:hi": null, "alt_name:mr": null, "boat": null, "layer": null, "name": null, "name:hi": null, "name:mr": null, "natural": "water", "tunnel": null, "type": null, "water": "river", "waterway": null, "wikidata": null, "@relations": null }, "geometry": { "type": "MultiPolygon", "coordinates": [ [ [ [ 79.0921545, 21.137001 ], [ 79.0918876, 21.1370448 ], [ 79.0910521, 21.137175 ], [ 79.0909408, 21.1372012 ], [ 79.0904017, 21.137268 ], [ 79.0901469, 21.1373263 ], [ 79.0895273, 21.137343 ], [ 79.0892457, 21.1373763 ], [ 79.0889748, 21.137313 ], [ 79.0887173, 21.137343 ], [ 79.0883551, 21.1374866 ], [ 79.0883538, 21.1376367 ], [ 79.0887548, 21.1374931 ], [ 79.0889694, 21.1375132 ], [ 79.0889958, 21.1374672 ], [ 79.0892444, 21.1374873 ], [ 79.0895325, 21.137593 ], [ 79.0898262, 21.137601 ], [ 79.0901306, 21.1375682 ], [ 79.0913592, 21.1373113 ], [ 79.0924093, 21.1371458 ], [ 79.0929692, 21.1372053 ], [ 79.0934675, 21.1372312 ], [ 79.0936606, 21.1371311 ], [ 79.093961808052541, 21.137 ], [ 79.093438429066666, 21.137 ], [ 79.0933789, 21.1370278 ], [ 79.0930464, 21.1370228 ], [ 79.0926655, 21.1370115 ], [ 79.092570126182977, 21.137 ], [ 79.092166202830199, 21.137 ], [ 79.0921545, 21.137001 ] ] ], [ [ [ 79.0974238, 21.1372755 ], [ 79.0958761, 21.1373413 ], [ 79.0958348, 21.1373246 ], [ 79.0957309, 21.1372826 ], [ 79.0955542, 21.1372112 ], [ 79.095174958031478, 21.137 ], [ 79.094562936218381, 21.137 ], [ 79.094594, 21.1370161 ], [ 79.0957956, 21.1375164 ], [ 79.0959136, 21.1375464 ], [ 79.0960826, 21.1375482 ], [ 79.0963052, 21.1375414 ], [ 79.0971206, 21.1374964 ], [ 79.098, 21.137413733888625 ], [ 79.098, 21.137206519535027 ], [ 79.0974238, 21.1372755 ] ] ] ] } },
{ "type": "Feature", "properties": { "id": "way/314142227", "@id": "way/314142227", "alt_name": null, "alt_name:hi": null, "alt_name:mr": null, "boat": null, "layer": null, "name": "Naag River", "name:hi": null, "name:mr": null, "natural": "water", "tunnel": null, "type": null, "water": "river", "waterway": null, "wikidata": null, "@relations": null }, "geometry": { "type": "Polygon", "coordinates": [ [ [ 79.0800832, 21.1399433 ], [ 79.0806357, 21.1400884 ], [ 79.0812634, 21.1402335 ], [ 79.0816228, 21.1402635 ], [ 79.0818856, 21.1403335 ], [ 79.0821968, 21.1403386 ], [ 79.0826192, 21.1404736 ], [ 79.0829156, 21.1405587 ], [ 79.0831677, 21.1405587 ], [ 79.0834735, 21.1405187 ], [ 79.0838007, 21.1404136 ], [ 79.0847502, 21.1397582 ], [ 79.0852478, 21.1392878 ], [ 79.0854154, 21.1389976 ], [ 79.0856622, 21.1386024 ], [ 79.0858768, 21.1379769 ], [ 79.0861235, 21.1377718 ], [ 79.086204, 21.1377318 ], [ 79.0863864, 21.1377268 ], [ 79.0868853, 21.1378518 ], [ 79.0874485, 21.1379469 ], [ 79.0875934, 21.1379169 ], [ 79.087824, 21.1378518 ], [ 79.0883538, 21.1376367 ], [ 79.0883551, 21.1374866 ], [ 79.0879635, 21.1376817 ], [ 79.0876135, 21.1377618 ], [ 79.0861825, 21.1376217 ], [ 79.0860699, 21.1376817 ], [ 79.0857909, 21.1379069 ], [ 79.0855549, 21.1383322 ], [ 79.0852317, 21.1389576 ], [ 79.0848401, 21.1394129 ], [ 79.0838477, 21.1401884 ], [ 79.0832522, 21.1403936 ], [ 79.0830752, 21.1404036 ], [ 79.0827855, 21.1403736 ], [ 79.0825025, 21.1402635 ], [ 79.0820399, 21.1401734 ], [ 79.0819876, 21.1401684 ], [ 79.0817944, 21.1401534 ], [ 79.0816067, 21.1401534 ], [ 79.0813116, 21.1401534 ], [ 79.0800349, 21.1397381 ], [ 79.0800832, 21.1399433 ] ] ] } },
{ "type": "Feature", "properties": { "id": "way/44435009", "@id": "way/44435009", "alt_name": null, "alt_name:hi": null, "alt_name:mr": null, "boat": "no", "layer": null, "name": "Nag River", "name:hi": null, "name:mr": "नाग नदी", "natural": null, "tunnel": null, "type": null, "water": null, "waterway": "river", "wikidata": "Q11789002", "@relations": [ { "role": "", "rel": 9118302, "reltags": { "name": "Nag River", "name:mr": "नाग नदी", "type": "waterway", "waterway": "river", "wikidata": "Q11789002" } } ] }, "geometry": { "type": "MultiLineString", "coordinates": [ [ [ 79.0832288, 21.1404878 ], [ 79.0839221, 21.1403644 ], [ 79.08442, 21.1400122 ], [ 79.0849092, 21.1395558 ], [ 79.0850208, 21.1393397 ], [ 79.0853212, 21.1390195 ], [ 79.08551, 21.1387393 ], [ 79.0858448, 21.1378747 ], [ 79.0861881, 21.1376585 ], [ 79.0874927, 21.1378747 ], [ 79.0880102, 21.1377067 ], [ 79.0887372, 21.1374504 ], [ 79.0890119, 21.1374104 ], [ 79.0892694, 21.1374104 ], [ 79.0898986, 21.1374845 ], [ 79.0903312, 21.1374286 ], [ 79.0923765, 21.1370581 ], [ 79.0926771, 21.1370752 ], [ 79.0934238, 21.137139 ], [ 79.093748046890539, 21.137 ] ], [ [ 79.094843150066978, 21.137 ], [ 79.0950372, 21.1370901 ], [ 79.0952731, 21.1371957 ], [ 79.0958612, 21.1374424 ], [ 79.096874, 21.1374504 ], [ 79.0978868, 21.1373383 ], [ 79.098, 21.1373383 ] ] ] } },
{ "type": "Feature", "properties": { "id": "way/308766267", "@id": "way/308766267", "alt_name": null, "alt_name:hi": null, "alt_name:mr": null, "boat": "no", "layer": null, "name": "Naag", "name:hi": null, "name:mr": null, "natural": null, "tunnel": null, "type": null, "water": null, "waterway": "river", "wikidata": null, "@relations": [ { "role": "", "rel": 9118302, "reltags": { "name": "Nag River", "name:mr": "नाग नदी", "type": "waterway", "waterway": "river", "wikidata": "Q11789002" } } ] }, "geometry": { "type": "LineString", "coordinates": [ [ 79.080084, 21.1398262 ], [ 79.080234, 21.1398898 ], [ 79.080549, 21.1399721 ], [ 79.0813111, 21.1402052 ], [ 79.081861, 21.1403224 ], [ 79.0822055, 21.1402523 ], [ 79.0823858, 21.1402923 ], [ 79.0827291, 21.1404605 ], [ 79.0830638, 21.1405085 ], [ 79.0832288, 21.1404878 ] ] } },
{ "type": "Feature", "properties": { "id": "way/311295532", "@id": "way/311295532", "alt_name": null, "alt_name:hi": null, "alt_name:mr": null, "boat": null, "layer": null, "name": null, "name:hi": null, "name:mr": null, "natural": null, "tunnel": null, "type": null, "water": null, "waterway": "stream", "wikidata": null, "@relations": null }, "geometry": { "type": "LineString", "coordinates": [ [ 79.0810597, 21.1411118 ], [ 79.0810805, 21.1410209 ], [ 79.0813131, 21.1408401 ], [ 79.0814165, 21.1406231 ], [ 79.081861, 21.1403224 ] ] } },
{ "type": "Feature", "properties": { "id": "way/311295523", "@id": "way/311295523", "alt_name": null, "alt_name:hi": null, "alt_name:mr": null, "boat": null, "layer": "-1", "name": null, "name:hi": null, "name:mr": null, "natural": null, "tunnel": "culvert", "type": null, "water": null, "waterway": "stream", "wikidata": null, "@relations": null }, "geometry": { "type": "LineString", "coordinates": [ [ 79.08084, 21.1415442 ], [ 79.0810597, 21.1411118 ] ] } },
{ "type": "Feature", "properties": { "id": "way/27058684", "@id": "way/27058684", "alt_name": "Shukrawari Lake", "alt_name:hi": "शुक्रवारी तलाव", "alt_name:mr": "शुक्रवारी तलाव", "boat": null, "layer": null, "name": "Gandhi Sagar", "name:hi": "गांधी सागर", "name:mr": "गांधी सागर", "natural": "water", "tunnel": null, "type": null, "water": "lake", "waterway": null, "wikidata": null, "@relations": null }, "geometry": { "type": "Polygon", "coordinates": [ [ [ 79.0958845, 21.1449951 ], [ 79.0964282, 21.1480497 ], [ 79.098, 21.147828090497388 ], [ 79.098, 21.144711934142048 ], [ 79.0958845, 21.1449951 ] ] ] } },
{ "type": "Feature", "properties": { "id": "way/311295548", "@id": "way/311295548", "alt_name": null, "alt_name:hi": null, "alt_name:mr": null, "boat": "no", "layer": null, "name": "Naag", "name:hi": null, "name:mr": "नाग", "natural": null, "tunnel": null, "type": null, "water": null, "waterway": "river", "wikidata": null, "@relations": [ { "role": "", "rel": 9118302, "reltags": { "name": "Nag River", "name:mr": "नाग नदी", "type": "waterway", "waterway": "river", "wikidata": "Q11789002" } } ] }, "geometry": { "type": "LineString", "coordinates": [ [ 79.076, 21.138617404330621 ], [ 79.0762317, 21.1387153 ], [ 79.0766866, 21.1387953 ], [ 79.0770643, 21.1389394 ], [ 79.0774333, 21.1390195 ], [ 79.07812, 21.1392756 ], [ 79.0787208, 21.1394197 ], [ 79.0788562, 21.1394444 ], [ 79.0791425, 21.1395535 ], [ 79.0794393, 21.1396439 ], [ 79.079631, 21.1397025 ] ] } },
{ "type": "Feature", "properties": { "id": "way/616610001", "@id": "way/616610001", "alt_name": null, "alt_name:hi": null, "alt_name:mr": null, "boat": null, "layer": null, "name": "Naag River", "name:hi": null, "name:mr": null, "natural": "water", "tunnel": null, "type": null, "water": "river", "waterway": null, "wikidata": null, "@relations": null }, "geometry": { "type": "Polygon", "coordinates": [ [ [ 79.0796685, 21.1398031 ], [ 79.079605, 21.1396056 ], [ 79.0776359, 21.1390551 ], [ 79.077137, 21.1389025 ], [ 79.076, 21.138555384045155 ], [ 79.076, 21.138671064752742 ], [ 79.0796685, 21.1398031 ] ] ] } },
{ "type": "Feature", "properties": { "id": "way/308766266", "@id": "way/308766266", "alt_name": null, "alt_name:hi": null, "alt_name:mr": null, "boat": "no", "layer": "-1", "name": "Naag", "name:hi": null, "name:mr": null, "natural": null, "tunnel": "culvert", "type": null, "water": null, "waterway": "river", "wikidata": null, "@relations": [ { "role": "", "rel": 9118302, "reltags": { "name": "Nag River", "name:mr": "नाग नदी", "type": "waterway", "waterway": "river", "wikidata": "Q11789002" } } ] }, "geometry": { "type": "LineString", "coordinates": [ [ 79.079631, 21.1397025 ], [ 79.080084, 21.1398262 ] ] } },
{ "type": "Feature", "properties": { "id": "way/308766258", "@id": "way/308766258", "alt_name": null, "alt_name:hi": null, "alt_name:mr": null, "boat": null, "layer": null, "name": null, "name:hi": null, "name:mr": null, "natural": null, "tunnel": null, "type": null, "water": null, "waterway": "stream", "wikidata": null, "@relations": null }, "geometry": { "type": "LineString", "coordinates": [ [ 79.0806969, 21.1419735 ], [ 79.0808132, 21.1418048 ], [ 79.08084, 21.1415442 ] ] } },
{ "type": "Feature", "properties": { "id": "way/308766241", "@id": "way/308766241", "alt_name": null, "alt_name:hi": null, "alt_name:mr": null, "boat": null, "layer": "-1", "name": null, "name:hi": null, "name:mr": null, "natural": null, "tunnel": "culvert", "type": null, "water": null, "waterway": "stream", "wikidata": null, "@relations": null }, "geometry": { "type": "LineString", "coordinates": [ [ 79.0802962, 21.1421544 ], [ 79.0806969, 21.1419735 ] ] } },
{ "type": "Feature", "properties": { "id": "way/308766249", "@id": "way/308766249", "alt_name": null, "alt_name:hi": null, "alt_name:mr": null, "boat": null, "layer": null, "name": null, "name:hi": null, "name:mr": null, "natural": null, "tunnel": null, "type": null, "water": null, "waterway": "stream", "wikidata": null, "@relations": null }, "geometry": { "type": "LineString", "coordinates": [ [ 79.076, 21.142219796848622 ], [ 79.076406, 21.1421785 ], [ 79.0771169, 21.1422749 ], [ 79.0773702, 21.1424047 ], [ 79.077776, 21.1427571 ], [ 79.0779134, 21.142832 ] ] } },
{ "type": "Feature", "properties": { "id": "way/1146064839", "@id": "way/1146064839", "alt_name": null, "alt_name:hi": null, "alt_name:mr": null, "boat": null, "layer": null, "name": null, "name:hi": null, "name:mr": null, "natural": null, "tunnel": null, "type": null, "water": null, "waterway": "stream", "wikidata": null, "@relations": null }, "geometry": { "type": "LineString", "coordinates": [ [ 79.0781207, 21.1429387 ], [ 79.0783923, 21.1432245 ], [ 79.0785252, 21.143306 ], [ 79.0786949, 21.1433276 ], [ 79.0788875, 21.1432754 ], [ 79.0791072, 21.1431428 ], [ 79.0795854, 21.1432031 ], [ 79.0798697, 21.1430705 ], [ 79.0799731, 21.1428294 ], [ 79.080167, 21.142287 ], [ 79.0802962, 21.1421544 ] ] } },
{ "type": "Feature", "properties": { "id": "way/1146064840", "@id": "way/1146064840", "alt_name": null, "alt_name:hi": null, "alt_name:mr": null, "boat": null, "layer": "-1", "name": null, "name:hi": null, "name:mr": null, "natural": null, "tunnel": "culvert", "type": null, "water": null, "waterway": "stream", "wikidata": null, "@relations": null }, "geometry": { "type": "LineString", "coordinates": [ [ 79.0779134, 21.142832 ], [ 79.0780171, 21.1428854 ], [ 79.0781207, 21.1429387 ] ] } }
]
}
