{
"type": "FeatureCollection",
"name": "option_b_underpass",
"crs": { "type": "name", "properties": { "name": "urn:ogc:def:crs:OGC:1.3:CRS84" } },
"features": [
{ "type": "Feature", "properties": { "scenario": "option_b_underpass", "type": "proposed_infrastructure", "prototype": true }, "geometry": { "type": "Polygon", "coordinates": [ [ [ 79.094, 21.14578 ], [ 79.094007841371223, 21.145779614778135 ], [ 79.094015607225757, 21.145778462822435 ], [ 79.094023222774169, 21.14577655522686 ], [ 79.09403061467458, 21.145773910362603 ], [ 79.094037711738935, 21.145770553701148 ], [ 79.094044445618636, 21.145766517568987 ], [ 79.094050751462731, 21.145761840836272 ], [ 79.094056568542484, 21.145756568542495 ], [ 79.094061840836261, 21.145750751462735 ], [ 79.094066517568976, 21.145744445618643 ], [ 79.094070553701144, 21.145737711738949 ], [ 79.094073910362596, 21.145730614674591 ], [ 79.094076555226849, 21.145723222774183 ], [ 79.094078462822424, 21.145715607225764 ], [ 79.094079614778124, 21.145707841371227 ], [ 79.09408, 21.1457 ], [ 79.094079614778124, 21.145692158628776 ], [ 79.094078462822424, 21.145684392774239 ], [ 79.094076555226849, 21.14567677722582 ], [ 79.094073910362596, 21.145669385325412 ], [ 79.094070553701144, 21.145662288261054 ], [ 79.094066517568976, 21.14565555438136 ], [ 79.094061840836261, 21.145649248537268 ], [ 79.094056568542484, 21.145643431457508 ], [ 79.094050751462731, 21.145638159163731 ], [ 79.094044445618636, 21.145633482431016 ], [ 79.094037711738935, 21.145629446298855 ], [ 79.09403061467458, 21.1456260896374 ], [ 79.094023222774169, 21.145623444773143 ], [ 79.094015607225757, 21.145621537177568 ], [ 79.094007841371223, 21.145620385221868 ], [ 79.094, 21.14562 ], [ 79.083, 21.14562 ], [ 79.08299215862877, 21.145620385221868 ], [ 79.082984392774236, 21.145621537177568 ], [ 79.082976777225824, 21.145623444773143 ], [ 79.082969385325413, 21.1456260896374 ], [ 79.082962288261058, 21.145629446298855 ], [ 79.082955554381357, 21.145633482431016 ], [ 79.082949248537261, 21.145638159163731 ], [ 79.082943431457508, 21.145643431457508 ], [ 79.082938159163731, 21.145649248537268 ], [ 79.082933482431017, 21.14565555438136 ], [ 79.082929446298849, 21.145662288261054 ], [ 79.082926089637397, 21.145669385325412 ], [ 79.082923444773144, 21.14567677722582 ], [ 79.082921537177569, 21.145684392774239 ], [ 79.082920385221868, 21.145692158628776 ], [ 79.08292, 21.1457 ], [ 79.082920385221868, 21.145707841371227 ], [ 79.082921537177569, 21.145715607225764 ], [ 79.082923444773144, 21.145723222774183 ], [ 79.082926089637397, 21.145730614674591 ], [ 79.082929446298849, 21.145737711738949 ], [ 79.082933482431017, 21.145744445618643 ], [ 79.082938159163731, 21.145750751462735 ], [ 79.082943431457508, 21.145756568542495 ], [ 79.082949248537261, 21.145761840836272 ], [ 79.082955554381357, 21.145766517568987 ], [ 79.082962288261058, 21.145770553701148 ], [ 79.082969385325413, 21.145773910362603 ], [ 79.082976777225824, 21.14577655522686 ], [ 79.082984392774236, 21.145778462822435 ], [ 79.08299215862877, 21.145779614778135 ], [ 79.083, 21.14578 ], [ 79.094, 21.14578 ] ] ] } }
]
}
